STARLINK-3339           
1 50820U 22001T   26068.55184796 -.00000336  00000+0 -30185-5 0  9992
2 50820  53.2178 169.7391 0001260 106.5177 253.5954 15.08839787230380
YAM-8                   
1 63254U 25052AW  26068.73092778  .00007810  00000+0  47267-3 0  9993
2 63254  97.7023 329.5345 0002369 152.6796 207.4558 15.10898938 54245
