[{"OBJECT_NAME":"STARLINK-3339","OBJECT_ID":"2022-001T","EPOCH":"2026-03-09T13:14:39.663744","MEAN_MOTION":15.08839787,"ECCENTRICITY":0.00012607,"INCLINATION":53.2178,"RA_OF_ASC_NODE":169.7391,"ARG_OF_PERICENTER":106.5177,"MEAN_ANOMALY":253.5954,"EPHEMERIS_TYPE":0,"CLASSIFICATION_TYPE":"U","NORAD_CAT_ID":50820,"ELEMENT_SET_NO":999,"REV_AT_EPOCH":23038,"BSTAR":-3.018521e-6,"MEAN_MOTION_DOT":-3.36e-6,"MEAN_MOTION_DDOT":0},{"OBJECT_NAME":"YAM-8","OBJECT_ID":"2025-052AW","EPOCH":"2026-03-09T17:32:32.161056","MEAN_MOTION":15.10898939,"ECCENTRICITY":0.00023693,"INCLINATION":97.7023,"RA_OF_ASC_NODE":329.5345,"ARG_OF_PERICENTER":152.6796,"MEAN_ANOMALY":207.4558,"EPHEMERIS_TYPE":0,"CLASSIFICATION_TYPE":"U","NORAD_CAT_ID":63254,"ELEMENT_SET_NO":999,"REV_AT_EPOCH":5424,"BSTAR":0.00047267461,"MEAN_MOTION_DOT":7.81e-5,"MEAN_MOTION_DDOT":0}]
